NORAD_CAT_ID,OBJECT_NAME,OBJECT_TYPE,EPOCH,MEAN_MOTION,ECCENTRICITY,INCLINATION,RA_OF_ASC_NODE,ARG_OF_PERICENTER,MEAN_ANOMALY,BSTAR,MEAN_MOTION_DOT,MEAN_MOTION_DDOT,TLE_LINE0,TLE_LINE1,TLE_LINE2,SEMIMAJOR_AXIS,PERIOD,APOGEE,PERIGEE,DECAYED
54809.0,STARLINK-5414,PAYLOAD,2023-11-06 13:48:48,15.08874589,0.0001709,53.2163,262.9379,86.2521,273.8667,0.00047073,7.219e-05,0.0,0 STARLINK-5414,1 54809U 22175BD  23310.57555961  .00007219  00000-0  47073-3 0  9998,2 54809  53.2163 262.9379 0001709  86.2521 273.8667 15.08874589 51197,6917.775,95.435,540.822,538.457,0.0
54809.0,STARLINK-5414,PAYLOAD,2023-11-07 04:07:18,15.08815347,0.0001326,53.2158,260.2649,93.3927,266.7216,-0.00078681,-0.0001278,0.0,0 STARLINK-5414,1 54809U 22175BD  23311.17174029 -.00012780  00000-0 -78681-3 0  9997,2 54809  53.2158 260.2649 0001326  93.3927 266.7216 15.08815347 49124,6917.956,95.439,540.738,538.903,0.0
54809.0,STARLINK-5414,PAYLOAD,2023-11-07 13:39:37,15.08816949,0.0001622,53.2171,258.4831,98.5296,261.588,-0.00056249,-9.223e-05,0.0,0 STARLINK-5414,1 54809U 22175BD  23311.56918565 -.00009223  00000-0 -56249-3 0  9995,2 54809  53.2171 258.4831 0001622  98.5296 261.5880 15.08816949 51342,6917.951,95.439,540.938,538.694,0.0
54809.0,STARLINK-5414,PAYLOAD,2023-11-08 02:22:42,15.08832956,0.0001582,53.2168,256.1024,92.9143,267.203,-0.00022653,-3.891e-05,0.0,0 STARLINK-5414,1 54809U 22175BD  23312.09910431 -.00003891  00000-0 -22653-3 0  9995,2 54809  53.2168 256.1024 0001582  92.9143 267.2030 15.08832956 49265,6917.902,95.438,540.861,538.673,0.0
54809.0,STARLINK-5414,PAYLOAD,2023-11-08 05:33:28,15.08842588,0.0001331,53.2164,255.5069,99.8607,260.2536,5.9167e-05,6.54e-06,0.0,0 STARLINK-5414,1 54809U 22175BD  23312.23158079  .00000654  00000-0  59167-4 0  9996,2 54809  53.2164 255.5069 0001331  99.8607 260.2536 15.08842588 49284,6917.872,95.437,540.658,538.817,0.0
54809.0,STARLINK-5414,PAYLOAD,2023-11-09 03:48:53,15.08838879,0.0001381,53.2176,251.3458,92.1054,268.0096,0.00063086,9.766e-05,0.0,0 STARLINK-5414,1 54809U 22175BD  23313.15895373  .00009766  00000-0  63086-3 0  9990,2 54809  53.2176 251.3458 0001381  92.1054 268.0096 15.08838879 49421,6917.884,95.438,540.704,538.793,0.0
54809.0,STARLINK-5414,PAYLOAD,2023-11-09 05:24:16,15.0884154,0.0001361,53.2176,251.0482,86.8655,273.2493,0.00065051,0.0001008,0.0,0 STARLINK-5414,1 54809U 22175BD  23313.22519286  .00010080  00000-0  65051-3 0  9999,2 54809  53.2176 251.0482 0001361  86.8655 273.2493 15.08841540 51599,6917.876,95.437,540.682,538.799,0.0
54809.0,STARLINK-5414,PAYLOAD,2023-11-10 02:04:17,15.0883705,0.0001792,53.2178,247.1778,107.4843,252.6345,4.0685e-05,3.59e-06,0.0,0 STARLINK-5414,1 54809U 22175BD  23314.08631822  .00000359  00000-0  40685-4 0  9990,2 54809  53.2178 247.1778 0001792 107.4843 252.6345 15.08837050 49564,6917.889,95.438,540.994,538.515,0.0
54809.0,STARLINK-5414,PAYLOAD,2023-11-10 13:12:00,15.08834968,0.0001834,53.2179,245.0941,116.8152,243.3028,5.9977e-05,6.66e-06,0.0,0 STARLINK-5414,1 54809U 22175BD  23314.55000036  .00000666  00000-0  59977-4 0  9994,2 54809  53.2179 245.0941 0001834 116.8152 243.3028 15.08834968 51796,6917.896,95.438,541.03,538.492,0.0
54809.0,STARLINK-5414,PAYLOAD,2023-11-11 05:05:50,15.08849224,0.0001688,53.2171,242.1208,112.0159,248.1012,0.00012483,1.7e-05,0.0,0 STARLINK-5414,1 54809U 22175BD  23315.21239405  .00001700  00000-0  12483-3 0  9992,2 54809  53.2171 242.1208 0001688 112.0159 248.1012 15.08849224 49732,6917.852,95.437,540.885,538.549,0.0
54809.0,STARLINK-5414,PAYLOAD,2023-11-11 19:24:19,15.08836418,0.0001884,53.2179,239.4429,113.4271,246.692,0.00011555,1.551e-05,0.0,0 STARLINK-5414,1 54809U 22175BD  23315.80856254  .00001551  00000-0  11555-3 0  9997,2 54809  53.2179 239.4429 0001884 113.4271 246.6920 15.08836418 49824,6917.891,95.438,541.06,538.453,0.0
54809.0,STARLINK-5414,PAYLOAD,2023-11-12 04:56:38,15.08840854,0.0001638,53.2168,237.6624,101.7794,258.3382,0.00010448,1.375e-05,0.0,0 STARLINK-5414,1 54809U 22175BD  23316.20600077  .00001375  00000-0  10448-3 0  9996,2 54809  53.2168 237.6624 0001638 101.7794 258.3382 15.08840854 52045,6917.878,95.438,540.876,538.61,0.0
54809.0,STARLINK-5414,PAYLOAD,2023-11-12 22:25:52,15.08840944,0.0001739,53.2173,234.3924,107.0115,253.1068,5.3887e-05,5.7e-06,0.0,0 STARLINK-5414,1 54809U 22175BD  23316.93464047  .00000570  00000-0  53887-4 0  9992,2 54809  53.2173 234.3924 0001739 107.0115 253.1068 15.08840944 52152,6917.878,95.437,540.946,538.539,0.0
54809.0,STARLINK-5414,PAYLOAD,2023-11-13 01:36:38,15.08846473,0.0001672,53.2174,233.7974,104.2806,255.8372,8.0843e-05,9.99e-06,0.0,0 STARLINK-5414,1 54809U 22175BD  23317.06711768  .00000999  00000-0  80843-4 0  9999,2 54809  53.2174 233.7974 0001672 104.2806 255.8372 15.08846473 50016,6917.861,95.437,540.882,538.569,0.0
54809.0,STARLINK-5414,PAYLOAD,2023-11-13 11:08:57,15.08848728,0.0001549,53.2173,232.0128,82.2215,277.8953,0.00012207,1.656e-05,0.0,0 STARLINK-5414,1 54809U 22175BD  23317.46455558  .00001656  00000-0  12207-3 0  9994,2 54809  53.2173 232.0128 0001549  82.2215 277.8953 15.08848728 52230,6917.854,95.437,540.79,538.647,0.0
54809.0,STARLINK-5414,PAYLOAD,2023-11-14 03:02:49,15.0883873,0.0001604,53.2185,229.0438,81.2996,278.8178,6.2721e-05,7.1e-06,0.0,0 STARLINK-5414,1 54809U 22175BD  23318.12696427  .00000710  00000-0  62721-4 0  9997,2 54809  53.2185 229.0438 0001604  81.2996 278.8178 15.08838730 50173,6917.884,95.438,540.859,538.64,0.0
54809.0,STARLINK-5414,PAYLOAD,2023-11-14 10:59:45,15.08839072,0.0001716,53.2186,227.5575,74.9825,285.1357,1.1473e-05,-1.05e-06,0.0,0 STARLINK-5414,1 54809U 22175BD  23318.45816571 -.00000105  00000-0  11473-4 0  9994,2 54809  53.2186 227.5575 0001716  74.9825 285.1357 15.08839072 52388,6917.883,95.438,540.935,538.561,0.0
54809.0,STARLINK-5414,PAYLOAD,2023-11-15 02:53:35,15.08852732,0.0001373,53.2172,224.5794,84.7586,275.3562,0.00010008,1.306e-05,0.0,0 STARLINK-5414,1 54809U 22175BD  23319.12055374  .00001306  00000-0  10008-3 0  9990,2 54809  53.2172 224.5794 0001373  84.7586 275.3562 15.08852732 50324,6917.841,95.437,540.656,538.757,0.0
54809.0,STARLINK-5414,PAYLOAD,2023-11-16 02:44:23,15.0884344,0.0001499,53.2172,220.122,92.925,267.1914,9.1546e-05,1.169e-05,0.0,0 STARLINK-5414,1 54809U 22175BD  23320.11415948  .00001169  00000-0  91546-4 0  9992,2 54809  53.2172 220.1220 0001499  92.9250 267.1914 15.08843440 50470,6917.87,95.437,540.772,538.698,0.0
54809.0,STARLINK-5414,PAYLOAD,2023-11-17 02:35:10,15.08837426,0.0001588,53.2169,215.6587,91.2734,268.844,0.00013811,1.911e-05,0.0,0 STARLINK-5414,1 54809U 22175BD  23321.10776054  .00001911  00000-0  13811-3 0  9993,2 54809  53.2169 215.6587 0001588  91.2734 268.8440 15.08837426 50625,6917.888,95.438,540.852,538.655,0.0
54809.0,STARLINK-5414,PAYLOAD,2023-11-17 10:32:06,15.08823658,0.0001677,53.2169,214.1718,89.8119,270.3065,0.00020585,2.988e-05,0.0,0 STARLINK-5414,1 54809U 22175BD  23321.43896988  .00002988  00000-0  20585-3 0  9999,2 54809  53.2169 214.1718 0001677  89.8119 270.3065 15.08823658 50672,6917.93,95.439,540.955,538.635,0.0
54809.0,STARLINK-5414,PAYLOAD,2023-11-17 16:53:39,15.08836113,0.0001715,53.2154,212.9851,83.8644,276.2544,-1.3293e-06,-3.09e-06,0.0,0 STARLINK-5414,1 54809U 22175BD  23321.70392722 -.00000309  00000-0 -13293-5 0  9993,2 54809  53.2154 212.9851 0001715  83.8644 276.2544 15.08836113 50712,6917.892,95.438,540.944,538.571,0.0
54809.0,STARLINK-5414,PAYLOAD,2023-11-17 23:15:11,15.08836353,0.0001697,53.2148,211.7953,85.8119,274.3067,5.0839e-06,-2.07e-06,0.0,0 STARLINK-5414,1 54809U 22175BD  23321.96888669 -.00000207  00000-0  50839-5 0  9994,2 54809  53.2148 211.7953 0001697  85.8119 274.3067 15.08836353 52912,6917.892,95.438,540.931,538.583,0.0
54809.0,STARLINK-5414,PAYLOAD,2023-11-18 10:22:53,15.08838962,0.0001734,53.2154,209.7142,84.8312,275.2878,1.9756e-05,2.6e-07,0.0,0 STARLINK-5414,1 54809U 22175BD  23322.43256553  .00000026  00000-0  19756-4 0  9998,2 54809  53.2154 209.7142 0001734  84.8312 275.2878 15.08838962 52987,6917.884,95.438,540.948,538.549,0.0
54809.0,STARLINK-5414,PAYLOAD,2023-11-18 16:44:25,15.08840674,0.000171,53.2141,208.5227,90.5917,269.5271,9.6475e-05,1.248e-05,0.0,0 STARLINK-5414,1 54809U 22175BD  23322.69752093  .00001248  00000-0  96475-4 0  9996,2 54809  53.2141 208.5227 0001710  90.5917 269.5271 15.08840674 50864,6917.878,95.438,540.926,538.56,0.0
54809.0,STARLINK-5414,PAYLOAD,2023-11-18 23:05:58,15.08849384,0.0001535,53.2168,207.3351,87.5317,272.5851,2.6988e-05,1.42e-06,0.0,0 STARLINK-5414,1 54809U 22175BD  23322.96247767  .00000142  00000-0  26988-4 0  9997,2 54809  53.2168 207.3351 0001535  87.5317 272.5851 15.08849384 53063,6917.852,95.437,540.779,538.655,0.0
54809.0,STARLINK-5414,PAYLOAD,2023-11-19 19:45:59,15.08837668,0.0001531,53.2162,203.4694,89.0708,271.046,9.0539e-05,1.153e-05,0.0,0 STARLINK-5414,1 54809U 22175BD  23323.82360310  .00001153  00000-0  90539-4 0  9999,2 54809  53.2162 203.4694 0001531  89.0708 271.0460 15.08837668 51038,6917.888,95.438,540.812,538.693,0.0
54809.0,STARLINK-5414,PAYLOAD,2023-11-19 22:56:45,15.08838511,0.0001552,53.2164,202.874,91.5709,268.5461,9.1241e-05,1.164e-05,0.0,0 STARLINK-5414,1 54809U 22175BD  23323.95608214  .00001164  00000-0  91241-4 0  9994,2 54809  53.2164 202.8740 0001552  91.5709 268.5461 15.08838511 53219,6917.885,95.438,540.824,538.676,0.0
54809.0,STARLINK-5414,PAYLOAD,2023-11-20 08:29:04,15.08826955,0.000154,53.2166,201.0904,87.59,272.5268,0.00021154,3.079e-05,0.0,0 STARLINK-5414,1 54809U 22175BD  23324.35352770  .00003079  00000-0  21154-3 0  9994,2 54809  53.2166 201.0904 0001540  87.5900 272.5268 15.08826955 51115,6917.92,95.438,540.851,538.72,0.0
54809.0,STARLINK-5414,PAYLOAD,2023-11-20 22:47:32,15.08840221,0.0001702,53.2169,198.4168,90.336,269.7828,-3.2003e-05,-7.97e-06,0.0,0 STARLINK-5414,1 54809U 22175BD  23324.94968573 -.00000797  00000-0 -32003-4 0  9995,2 54809  53.2169 198.4168 0001702  90.3360 269.7828 15.08840221 53362,6917.88,95.438,540.922,538.567,0.0
